STARLINK-31737          
1 59537U 24074D   26068.09112546  .00001233  00000+0  54299-4 0  9997
2 59537  43.0045 346.8346 0001081 269.7064  90.3664 15.27589441105926
FLOCK 4G-6              
1 62660U 25009BD  26068.71061311  .00012261  00000+0  45910-3 0  9991
2 62660  97.3980 150.7943 0002380 348.2637  11.8546 15.27432125121307
